[{"OBJECT_NAME":"JILIN-1 GAOFEN 2F","OBJECT_ID":"2021-097A","EPOCH":"2026-03-09T22:15:16.366464","MEAN_MOTION":15.06938169,"ECCENTRICITY":0.00186372,"INCLINATION":97.6538,"RA_OF_ASC_NODE":195.5232,"ARG_OF_PERICENTER":201.1609,"MEAN_ANOMALY":158.885,"EPHEMERIS_TYPE":0,"CLASSIFICATION_TYPE":"U","NORAD_CAT_ID":49338,"ELEMENT_SET_NO":999,"REV_AT_EPOCH":24136,"BSTAR":0.0003789548,"MEAN_MOTION_DOT":5.624e-5,"MEAN_MOTION_DDOT":0},{"OBJECT_NAME":"STARLINK-3196","OBJECT_ID":"2021-115AW","EPOCH":"2026-03-09T11:06:09.338976","MEAN_MOTION":15.08835295,"ECCENTRICITY":0.00013815,"INCLINATION":53.2182,"RA_OF_ASC_NODE":140.1345,"ARG_OF_PERICENTER":70.7782,"MEAN_ANOMALY":289.3359,"EPHEMERIS_TYPE":0,"CLASSIFICATION_TYPE":"U","NORAD_CAT_ID":49768,"ELEMENT_SET_NO":999,"REV_AT_EPOCH":23564,"BSTAR":2.4031709e-5,"MEAN_MOTION_DOT":9.5e-7,"MEAN_MOTION_DDOT":0}]
